TRANSPORTER-16 OBJECT D 
1 68419U 26067D   26104.13069388  .00001777  00000+0  89370-4 0  9992
2 68419  97.4490  63.5703 0003341 108.0089 252.1510 15.18515636  2227
